ONEWEB-0704             
1 61609U 24188R   26052.99871208  .00000633  00000+0  17757-2 0  9994
2 61609  87.8778  59.1808 0002763 100.1796 259.9643 13.10373896 68207
ONEWEB-0705             
1 61610U 24188S   26053.00368212  .00000649  00000+0  18222-2 0  9990
2 61610  87.8763  59.1947 0002917  78.8063 281.3392 13.10371320 60376
ONEWEB-0706             
1 61611U 24188T   26052.45423448  .00000455  00000+0  12675-2 0  9993
2 61611  87.8757  59.3185 0002467  93.2697 266.8713 13.10374640 68225
ONEWEB-0707             
1 61612U 24188U   26052.99537612  .00000569  00000+0  15931-2 0  9996
2 61612  87.8766  59.1957 0002421  93.8441 266.2963 13.10373251 68233
ONEWEB-0708             
1 61613U 24188V   26053.01363559  .00000401  00000+0  11132-2 0  9992
2 61613  87.8754  59.2210 0002201  75.9661 284.1710 13.10370288 68219
