[{"OBJECT_NAME":"ONEWEB-0704","OBJECT_ID":"2024-188R","EPOCH":"2026-02-21T23:58:08.723712","MEAN_MOTION":13.10373896,"ECCENTRICITY":0.0002763,"INCLINATION":87.8778,"RA_OF_ASC_NODE":59.1808,"ARG_OF_PERICENTER":100.1796,"MEAN_ANOMALY":259.9643,"EPHEMERIS_TYPE":0,"CLASSIFICATION_TYPE":"U","NORAD_CAT_ID":61609,"ELEMENT_SET_NO":999,"REV_AT_EPOCH":6820,"BSTAR":0.0017757,"MEAN_MOTION_DOT":6.33e-6,"MEAN_MOTION_DDOT":0},{"OBJECT_NAME":"ONEWEB-0705","OBJECT_ID":"2024-188S","EPOCH":"2026-02-22T00:05:18.135168","MEAN_MOTION":13.1037132,"ECCENTRICITY":0.0002917,"INCLINATION":87.8763,"RA_OF_ASC_NODE":59.1947,"ARG_OF_PERICENTER":78.8063,"MEAN_ANOMALY":281.3392,"EPHEMERIS_TYPE":0,"CLASSIFICATION_TYPE":"U","NORAD_CAT_ID":61610,"ELEMENT_SET_NO":999,"REV_AT_EPOCH":6037,"BSTAR":0.0018222,"MEAN_MOTION_DOT":6.49e-6,"MEAN_MOTION_DDOT":0},{"OBJECT_NAME":"ONEWEB-0706","OBJECT_ID":"2024-188T","EPOCH":"2026-02-21T10:54:05.859072","MEAN_MOTION":13.1037464,"ECCENTRICITY":0.00024673,"INCLINATION":87.8757,"RA_OF_ASC_NODE":59.3185,"ARG_OF_PERICENTER":93.2697,"MEAN_ANOMALY":266.8713,"EPHEMERIS_TYPE":0,"CLASSIFICATION_TYPE":"U","NORAD_CAT_ID":61611,"ELEMENT_SET_NO":999,"REV_AT_EPOCH":6822,"BSTAR":0.0012674881,"MEAN_MOTION_DOT":4.55e-6,"MEAN_MOTION_DDOT":0},{"OBJECT_NAME":"ONEWEB-0707","OBJECT_ID":"2024-188U","EPOCH":"2026-02-21T23:53:20.496768","MEAN_MOTION":13.10373251,"ECCENTRICITY":0.0002421,"INCLINATION":87.8766,"RA_OF_ASC_NODE":59.1957,"ARG_OF_PERICENTER":93.8441,"MEAN_ANOMALY":266.2963,"EPHEMERIS_TYPE":0,"CLASSIFICATION_TYPE":"U","NORAD_CAT_ID":61612,"ELEMENT_SET_NO":999,"REV_AT_EPOCH":6823,"BSTAR":0.0015931,"MEAN_MOTION_DOT":5.69e-6,"MEAN_MOTION_DDOT":0},{"OBJECT_NAME":"ONEWEB-0708","OBJECT_ID":"2024-188V","EPOCH":"2026-02-22T00:19:38.114976","MEAN_MOTION":13.10370288,"ECCENTRICITY":0.0002201,"INCLINATION":87.8754,"RA_OF_ASC_NODE":59.221,"ARG_OF_PERICENTER":75.9661,"MEAN_ANOMALY":284.171,"EPHEMERIS_TYPE":0,"CLASSIFICATION_TYPE":"U","NORAD_CAT_ID":61613,"ELEMENT_SET_NO":999,"REV_AT_EPOCH":6821,"BSTAR":0.0011132,"MEAN_MOTION_DOT":4.01e-6,"MEAN_MOTION_DDOT":0}]
